{"fetched_at":"2026-07-10T18:07:50.152Z","source":"https://celestrak.org/NORAD/elements/gp.php?GROUP=kuiper&FORMAT=JSON","constellation":"kuiper","records":[{"OBJECT_NAME":"KUIPER-00607","OBJECT_ID":"2026-118Z","EPOCH":"2026-07-09T11:41:45.484800","CLASSIFICATION_TYPE":"U","MEAN_MOTION":15.37923231,"ECCENTRICITY":0.00052416,"INCLINATION":51.8675,"RA_OF_ASC_NODE":305.377,"ARG_OF_PERICENTER":249.7111,"MEAN_ANOMALY":110.3313,"EPHEMERIS_TYPE":0,"NORAD_CAT_ID":69290,"ELEMENT_SET_NO":999,"REV_AT_EPOCH":741,"BSTAR":0.00077406616,"MEAN_MOTION_DOT":0.00029048,"MEAN_MOTION_DDOT":0},{"OBJECT_NAME":"KUIPER-00608","OBJECT_ID":"2026-118AA","EPOCH":"2026-07-10T07:55:08.349600","CLASSIFICATION_TYPE":"U","MEAN_MOTION":15.34126766,"ECCENTRICITY":0.00076438,"INCLINATION":51.8582,"RA_OF_ASC_NODE":301.9839,"ARG_OF_PERICENTER":280.3897,"MEAN_ANOMALY":79.6227,"EPHEMERIS_TYPE":0,"NORAD_CAT_ID":69291,"ELEMENT_SET_NO":999,"REV_AT_EPOCH":753,"BSTAR":0.00034417714,"MEAN_MOTION_DOT":0.00011186,"MEAN_MOTION_DDOT":0},{"OBJECT_NAME":"KUIPER-00610","OBJECT_ID":"2026-118AB","EPOCH":"2026-07-09T12:43:43.930848","CLASSIFICATION_TYPE":"U","MEAN_MOTION":15.38705398,"ECCENTRICITY":0.00022312,"INCLINATION":51.8681,"RA_OF_ASC_NODE":304.9258,"ARG_OF_PERICENTER":280.5949,"MEAN_ANOMALY":79.4787,"EPHEMERIS_TYPE":0,"NORAD_CAT_ID":69292,"ELEMENT_SET_NO":999,"REV_AT_EPOCH":742,"BSTAR":0.00054710685,"MEAN_MOTION_DOT":0.0002092,"MEAN_MOTION_DDOT":0},{"OBJECT_NAME":"KUIPER-00613","OBJECT_ID":"2026-118AC","EPOCH":"2026-07-10T06:00:02.000160","CLASSIFICATION_TYPE":"U","MEAN_MOTION":15.1499566,"ECCENTRICITY":0.00087726,"INCLINATION":51.878,"RA_OF_ASC_NODE":303.1142,"ARG_OF_PERICENTER":270.5788,"MEAN_ANOMALY":9.3097,"EPHEMERIS_TYPE":0,"NORAD_CAT_ID":69293,"ELEMENT_SET_NO":999,"REV_AT_EPOCH":459,"BSTAR":-0.065979285,"MEAN_MOTION_DOT":-0.01151243,"MEAN_MOTION_DDOT":0},{"OBJECT_NAME":"KUIPER-00618","OBJECT_ID":"2026-118AD","EPOCH":"2026-07-10T07:34:21.618336","CLASSIFICATION_TYPE":"U","MEAN_MOTION":15.37484821,"ECCENTRICITY":0.00002176,"INCLINATION":51.8732,"RA_OF_ASC_NODE":301.1919,"ARG_OF_PERICENTER":203.7552,"MEAN_ANOMALY":156.3425,"EPHEMERIS_TYPE":0,"NORAD_CAT_ID":69294,"ELEMENT_SET_NO":999,"REV_AT_EPOCH":754,"BSTAR":0.0006309694,"MEAN_MOTION_DOT":0.00023242,"MEAN_MOTION_DDOT":0},{"OBJECT_NAME":"KUIPER-00620","OBJECT_ID":"2026-118AE","EPOCH":"2026-07-10T07:25:12.732096","CLASSIFICATION_TYPE":"U","MEAN_MOTION":15.38688393,"ECCENTRICITY":0.00008009,"INCLINATION":51.8707,"RA_OF_ASC_NODE":301.151,"ARG_OF_PERICENTER":212.6089,"MEAN_ANOMALY":147.4848,"EPHEMERIS_TYPE":0,"NORAD_CAT_ID":69295,"ELEMENT_SET_NO":999,"REV_AT_EPOCH":754,"BSTAR":0.00055391842,"MEAN_MOTION_DOT":0.00021174,"MEAN_MOTION_DDOT":0},{"OBJECT_NAME":"KUIPER-00423","OBJECT_ID":"2026-140A","EPOCH":"2026-07-09T14:18:56.178720","CLASSIFICATION_TYPE":"U","MEAN_MOTION":15.38521864,"ECCENTRICITY":0.00135336,"INCLINATION":51.8798,"RA_OF_ASC_NODE":290.1674,"ARG_OF_PERICENTER":249.9966,"MEAN_ANOMALY":109.9564,"EPHEMERIS_TYPE":0,"NORAD_CAT_ID":69592,"ELEMENT_SET_NO":999,"REV_AT_EPOCH":468,"BSTAR":0.00039302263,"MEAN_MOTION_DOT":0.00014852,"MEAN_MOTION_DDOT":0},{"OBJECT_NAME":"KUIPER-00428","OBJECT_ID":"2026-140B","EPOCH":"2026-07-10T06:42:12.638880","CLASSIFICATION_TYPE":"U","MEAN_MOTION":15.36879109,"ECCENTRICITY":0.00078582,"INCLINATION":51.8818,"RA_OF_ASC_NODE":287.2409,"ARG_OF_PERICENTER":16.4101,"MEAN_ANOMALY":343.7139,"EPHEMERIS_TYPE":0,"NORAD_CAT_ID":69593,"ELEMENT_SET_NO":999,"REV_AT_EPOCH":478,"BSTAR":0.00051735185,"MEAN_MOTION_DOT":0.00018615,"MEAN_MOTION_DDOT":0},{"OBJECT_NAME":"KUIPER-00481","OBJECT_ID":"2026-140C","EPOCH":"2026-07-10T06:07:40.007424","CLASSIFICATION_TYPE":"U","MEAN_MOTION":15.37926636,"ECCENTRICITY":0.00107596,"INCLINATION":51.878,"RA_OF_ASC_NODE":287.0801,"ARG_OF_PERICENTER":263.3581,"MEAN_ANOMALY":96.6181,"EPHEMERIS_TYPE":0,"NORAD_CAT_ID":69594,"ELEMENT_SET_NO":999,"REV_AT_EPOCH":478,"BSTAR":0.00063513501,"MEAN_MOTION_DOT":0.00023781,"MEAN_MOTION_DDOT":0},{"OBJECT_NAME":"KUIPER-00490","OBJECT_ID":"2026-140D","EPOCH":"2026-07-09T14:45:44.294400","CLASSIFICATION_TYPE":"U","MEAN_MOTION":15.37868929,"ECCENTRICITY":0.00065405,"INCLINATION":51.8782,"RA_OF_ASC_NODE":290.2805,"ARG_OF_PERICENTER":318.34,"MEAN_ANOMALY":41.7088,"EPHEMERIS_TYPE":0,"NORAD_CAT_ID":69595,"ELEMENT_SET_NO":999,"REV_AT_EPOCH":468,"BSTAR":0.00054112136,"MEAN_MOTION_DOT":0.00020131,"MEAN_MOTION_DDOT":0},{"OBJECT_NAME":"KUIPER-00493","OBJECT_ID":"2026-140E","EPOCH":"2026-07-10T06:48:32.746176","CLASSIFICATION_TYPE":"U","MEAN_MOTION":15.36600794,"ECCENTRICITY":0.00076994,"INCLINATION":51.8797,"RA_OF_ASC_NODE":287.266,"ARG_OF_PERICENTER":21.4042,"MEAN_ANOMALY":338.7265,"EPHEMERIS_TYPE":0,"NORAD_CAT_ID":69596,"ELEMENT_SET_NO":999,"REV_AT_EPOCH":478,"BSTAR":0.00049772101,"MEAN_MOTION_DOT":0.00017729,"MEAN_MOTION_DDOT":0},{"OBJECT_NAME":"KUIPER-00496","OBJECT_ID":"2026-140F","EPOCH":"2026-07-10T05:38:56.928768","CLASSIFICATION_TYPE":"U","MEAN_MOTION":15.34431068,"ECCENTRICITY":0.00103945,"INCLINATION":51.8802,"RA_OF_ASC_NODE":287.6834,"ARG_OF_PERICENTER":38.3575,"MEAN_ANOMALY":321.8148,"EPHEMERIS_TYPE":0,"NORAD_CAT_ID":69597,"ELEMENT_SET_NO":999,"REV_AT_EPOCH":477,"BSTAR":0.00050173813,"MEAN_MOTION_DOT":0.00016667,"MEAN_MOTION_DDOT":0},{"OBJECT_NAME":"KUIPER-00513","OBJECT_ID":"2026-140G","EPOCH":"2026-07-09T14:42:03.449088","CLASSIFICATION_TYPE":"U","MEAN_MOTION":15.38069388,"ECCENTRICITY":0.00070475,"INCLINATION":51.882,"RA_OF_ASC_NODE":290.2737,"ARG_OF_PERICENTER":316.504,"MEAN_ANOMALY":43.5391,"EPHEMERIS_TYPE":0,"NORAD_CAT_ID":69598,"ELEMENT_SET_NO":999,"REV_AT_EPOCH":468,"BSTAR":0.00069985976,"MEAN_MOTION_DOT":0.0002635,"MEAN_MOTION_DDOT":0},{"OBJECT_NAME":"KUIPER-00516","OBJECT_ID":"2026-140H","EPOCH":"2026-07-09T14:51:04.423680","CLASSIFICATION_TYPE":"U","MEAN_MOTION":15.37505084,"ECCENTRICITY":0.00068355,"INCLINATION":51.8784,"RA_OF_ASC_NODE":290.3069,"ARG_OF_PERICENTER":334.1487,"MEAN_ANOMALY":25.9157,"EPHEMERIS_TYPE":0,"NORAD_CAT_ID":69599,"ELEMENT_SET_NO":999,"REV_AT_EPOCH":468,"BSTAR":0.00033369668,"MEAN_MOTION_DOT":0.00012103,"MEAN_MOTION_DDOT":0},{"OBJECT_NAME":"KUIPER-00517","OBJECT_ID":"2026-140J","EPOCH":"2026-07-09T14:23:38.898528","CLASSIFICATION_TYPE":"U","MEAN_MOTION":15.38737863,"ECCENTRICITY":0.00107196,"INCLINATION":51.8773,"RA_OF_ASC_NODE":290.1814,"ARG_OF_PERICENTER":270.9978,"MEAN_ANOMALY":88.9781,"EPHEMERIS_TYPE":0,"NORAD_CAT_ID":69600,"ELEMENT_SET_NO":999,"REV_AT_EPOCH":468,"BSTAR":0.00079751053,"MEAN_MOTION_DOT":0.00030802,"MEAN_MOTION_DDOT":0},{"OBJECT_NAME":"KUIPER-00520","OBJECT_ID":"2026-140K","EPOCH":"2026-07-09T14:52:36.223680","CLASSIFICATION_TYPE":"U","MEAN_MOTION":15.37569154,"ECCENTRICITY":0.00068809,"INCLINATION":51.8793,"RA_OF_ASC_NODE":290.3215,"ARG_OF_PERICENTER":333.8181,"MEAN_ANOMALY":26.2457,"EPHEMERIS_TYPE":0,"NORAD_CAT_ID":69601,"ELEMENT_SET_NO":999,"REV_AT_EPOCH":468,"BSTAR":0.0007027917,"MEAN_MOTION_DOT":0.00026029,"MEAN_MOTION_DDOT":0},{"OBJECT_NAME":"KUIPER-00522","OBJECT_ID":"2026-140L","EPOCH":"2026-07-09T14:18:06.669792","CLASSIFICATION_TYPE":"U","MEAN_MOTION":15.38558445,"ECCENTRICITY":0.00132562,"INCLINATION":51.8792,"RA_OF_ASC_NODE":290.161,"ARG_OF_PERICENTER":244.9258,"MEAN_ANOMALY":115.0353,"EPHEMERIS_TYPE":0,"NORAD_CAT_ID":69602,"ELEMENT_SET_NO":999,"REV_AT_EPOCH":468,"BSTAR":0.00030432752,"MEAN_MOTION_DOT":0.00011416,"MEAN_MOTION_DDOT":0},{"OBJECT_NAME":"KUIPER-00528","OBJECT_ID":"2026-140M","EPOCH":"2026-07-09T14:55:41.422944","CLASSIFICATION_TYPE":"U","MEAN_MOTION":15.3741517,"ECCENTRICITY":0.00059269,"INCLINATION":51.8764,"RA_OF_ASC_NODE":290.3271,"ARG_OF_PERICENTER":340.6948,"MEAN_ANOMALY":19.3813,"EPHEMERIS_TYPE":0,"NORAD_CAT_ID":69603,"ELEMENT_SET_NO":999,"REV_AT_EPOCH":468,"BSTAR":0.00066168979,"MEAN_MOTION_DOT":0.00024351,"MEAN_MOTION_DDOT":0},{"OBJECT_NAME":"KUIPER-00532","OBJECT_ID":"2026-140N","EPOCH":"2026-07-09T15:07:22.864800","CLASSIFICATION_TYPE":"U","MEAN_MOTION":15.36698531,"ECCENTRICITY":0.0005654,"INCLINATION":51.8764,"RA_OF_ASC_NODE":290.3785,"ARG_OF_PERICENTER":14.2215,"MEAN_ANOMALY":345.8929,"EPHEMERIS_TYPE":0,"NORAD_CAT_ID":69604,"ELEMENT_SET_NO":999,"REV_AT_EPOCH":468,"BSTAR":0.00070892217,"MEAN_MOTION_DOT":0.00025515,"MEAN_MOTION_DDOT":0},{"OBJECT_NAME":"KUIPER-00533","OBJECT_ID":"2026-140P","EPOCH":"2026-07-09T14:36:56.956320","CLASSIFICATION_TYPE":"U","MEAN_MOTION":15.38181942,"ECCENTRICITY":0.00079541,"INCLINATION":51.8775,"RA_OF_ASC_NODE":290.2427,"ARG_OF_PERICENTER":306.5126,"MEAN_ANOMALY":53.5128,"EPHEMERIS_TYPE":0,"NORAD_CAT_ID":69605,"ELEMENT_SET_NO":999,"REV_AT_EPOCH":468,"BSTAR":0.00033629047,"MEAN_MOTION_DOT":0.0001248,"MEAN_MOTION_DDOT":0},{"OBJECT_NAME":"KUIPER-00534","OBJECT_ID":"2026-140Q","EPOCH":"2026-07-09T18:51:41.985504","CLASSIFICATION_TYPE":"U","MEAN_MOTION":15.3863029,"ECCENTRICITY":0.00132936,"INCLINATION":51.882,"RA_OF_ASC_NODE":289.1919,"ARG_OF_PERICENTER":246.8413,"MEAN_ANOMALY":113.1174,"EPHEMERIS_TYPE":0,"NORAD_CAT_ID":69606,"ELEMENT_SET_NO":999,"REV_AT_EPOCH":471,"BSTAR":0.00056683937,"MEAN_MOTION_DOT":0.00021694,"MEAN_MOTION_DDOT":0},{"OBJECT_NAME":"KUIPER-00537","OBJECT_ID":"2026-140R","EPOCH":"2026-07-10T07:07:40.799136","CLASSIFICATION_TYPE":"U","MEAN_MOTION":15.34351403,"ECCENTRICITY":0.00104573,"INCLINATION":51.8779,"RA_OF_ASC_NODE":287.352,"ARG_OF_PERICENTER":40.0595,"MEAN_ANOMALY":320.116,"EPHEMERIS_TYPE":0,"NORAD_CAT_ID":69607,"ELEMENT_SET_NO":999,"REV_AT_EPOCH":478,"BSTAR":0.00093981833,"MEAN_MOTION_DOT":0.00031538,"MEAN_MOTION_DDOT":0},{"OBJECT_NAME":"KUIPER-00538","OBJECT_ID":"2026-140S","EPOCH":"2026-07-10T06:25:22.345536","CLASSIFICATION_TYPE":"U","MEAN_MOTION":15.37663768,"ECCENTRICITY":0.00064912,"INCLINATION":51.8811,"RA_OF_ASC_NODE":287.1649,"ARG_OF_PERICENTER":327.8715,"MEAN_ANOMALY":32.1875,"EPHEMERIS_TYPE":0,"NORAD_CAT_ID":69608,"ELEMENT_SET_NO":999,"REV_AT_EPOCH":478,"BSTAR":0.0005246873,"MEAN_MOTION_DOT":0.00019374,"MEAN_MOTION_DDOT":0}]}
